{
    "links": {
        "self": "http://www.neowsapp.com/rest/v1/neo/3715911?api_key=iIulBulltgU6a56xZRHN4H3l9WmuAYTsLGpBGhQ2"
    },
    "id": "3715911",
    "neo_reference_id": "3715911",
    "name": "(2015 HB)",
    "designation": "2015 HB",
    "nasa_jpl_url": "http://ssd.jpl.nasa.gov/sbdb.cgi?sstr=3715911",
    "absolute_magnitude_h": 22.9,
    "estimated_diameter": {
        "kilometers": {
            "estimated_diameter_min": 0.0699125232,
            "estimated_diameter_max": 0.1563291544
        },
        "meters": {
            "estimated_diameter_min": 69.9125232246,
            "estimated_diameter_max": 156.3291544087
        },
        "miles": {
            "estimated_diameter_min": 0.0434416145,
            "estimated_diameter_max": 0.097138403
        },
        "feet": {
            "estimated_diameter_min": 229.3718026961,
            "estimated_diameter_max": 512.8909429502
        }
    },
    "is_potentially_hazardous_asteroid": false,
    "close_approach_data": [
        {
            "close_approach_date": "2015-05-19",
            "close_approach_date_full": "2015-May-19 09:24",
            "epoch_date_close_approach": 1432027440000,
            "relative_velocity": {
                "kilometers_per_second": "4.8440266192",
                "kilometers_per_hour": "17438.4958292749",
                "miles_per_hour": "10835.6031445847"
            },
            "miss_distance": {
                "astronomical": "0.2363745715",
                "lunar": "91.9497083135",
                "kilometers": "35361132.418562705",
                "miles": "21972388.811687129"
            },
            "orbiting_body": "Earth"
        }
    ],
    "orbital_data": {
        "orbit_id": "11",
        "orbit_determination_date": "2017-04-06 08:34:24",
        "first_observation_date": "2015-04-15",
        "last_observation_date": "2015-06-08",
        "data_arc_in_days": 54,
        "observations_used": 35,
        "orbit_uncertainty": "6",
        "minimum_orbit_intersection": ".20148",
        "jupiter_tisserand_invariant": "3.209",
        "epoch_osculation": "2459000.5",
        "eccentricity": ".5303165021454299",
        "semi_major_axis": "2.581771885650793",
        "inclination": "2.539553987763276",
        "ascending_node_longitude": "66.22694918076007",
        "orbital_period": "1515.218372668449",
        "perihelion_distance": "1.212615649915054",
        "perihelion_argument": "168.6397154401157",
        "aphelion_distance": "3.950928121386533",
        "perihelion_time": "2458682.119068842753",
        "mean_anomaly": "75.64397138001762",
        "mean_motion": ".2375895161342352",
        "equinox": "J2000",
        "orbit_class": {
            "orbit_class_type": "AMO",
            "orbit_class_description": "Near-Earth asteroid orbits similar to that of 1221 Amor",
            "orbit_class_range": "1.017 AU < q (perihelion) < 1.3 AU"
        }
    },
    "is_sentry_object": false
}